STARLINK-11475 [DTC]    
1 62226U 24231J   26199.33908243  .00088221  00000+0  72462-3 0  9993
2 62226  53.1577 177.0496 0001135  84.5839 275.5308 15.69733125 93935
STARLINK-11469 [DTC]    
1 62227U 24231K   26199.22155392  .00104884  00000+0  85845-3 0  9994
2 62227  53.1570 177.7407 0001195  94.3057 265.8097 15.69744257 93918
STARLINK-11476 [DTC]    
1 62228U 24231L   26199.64271380  .00068082  00000+0  56192-3 0  9999
2 62228  53.1584 175.3829 0001129  93.4532 266.6615 15.69722206 93994
STARLINK-11485 [DTC]    
1 62229U 24231M   26199.66233477  .00148080  00000+0  12036-2 0  9992
2 62229  53.1579 175.5156 0000874  81.3088 278.8029 15.69746163 93983
STARLINK-11481 [DTC]    
1 62230U 24231N   26199.63791132  .00109942  00000+0  89970-3 0  9994
2 62230  53.1576 176.0836 0001106  92.4445 267.6700 15.69727193 93975
STARLINK-32650          
1 62231U 24231P   26199.65402095  .00009411  00000+0  31458-3 0  9992
2 62231  53.1578 331.0327 0001258 102.7896 257.3246 15.31706220 91829
STARLINK-32636          
1 62232U 24231Q   26199.65677045  .00014393  00000+0  49703-3 0  9999
2 62232  53.1601 331.0502 0001749  97.1447 262.9752 15.30207709 91827
STARLINK-32643          
1 62233U 24231R   26199.66487022  .00018882  00000+0  61836-3 0  9993
2 62233  53.1600 317.6072 0001556  77.8046 282.3129 15.31716283 92003
STARLINK-32652          
1 62234U 24231S   26199.78918895  .00007522  00000+0  25386-3 0  9993
2 62234  53.1609 330.4520 0001382  89.6509 270.4651 15.31706946 91839
STARLINK-32631          
1 62235U 24231T   26199.71145088  .00009832  00000+0  32814-3 0  9993
2 62235  53.1585 317.1921 0001263  80.9911 279.1233 15.31704494 92018
STARLINK-32641          
1 62236U 24231U   26199.74790985  .00011456  00000+0  39819-3 0  9996
2 62236  53.1595 318.1172 0000923  75.2767 284.8336 15.30209757 92004
QIANFAN-37              
1 62238U 24232B   26199.81244767  .00000019  00000+0  11034-4 0  9992
2 62238  89.0070  19.4072 0002106 108.6838 251.4542 13.51011387128614
QIANFAN-38              
1 62239U 24232C   26199.83712000  .00000036  00000+0  38145-4 0  9996
2 62239  89.0077  19.3353 0012542 287.6809  72.2972 13.51022229128673
QIANFAN-39              
1 62240U 24232D   26199.80753898  .00000072  00000+0  24320-4 0  9995
2 62240  89.0066  12.4640 0018512  85.4699 274.8608 14.25532828132450
QIANFAN-40              
1 62241U 24232E   26199.87001874  .00000025  00000+0  20355-4 0  9995
2 62241  89.0104  18.9773 0011685 297.0021  62.9937 13.51009555129042
QIANFAN-41              
1 62242U 24232F   26199.87822977  .00000019  00000+0  11149-4 0  9995
2 62242  89.0075  19.2786 0011910 282.9689  77.0131 13.51012456128701
QIANFAN-42              
1 62243U 24232G   26199.80403575  .00000069  00000+0  23228-4 0  9994
2 62243  89.0064  12.5438 0017377  91.4696 268.8487 14.24621312132419
QIANFAN-43              
1 62244U 24232H   26199.87411101  .00000023  00000+0  17192-4 0  9999
2 62244  89.0079  19.3540 0013501 288.8289  71.1398 13.51011858 97312
QIANFAN-44              
1 62245U 24232J   26199.86170933  .00000023  00000+0  16865-4 0  9990
2 62245  89.0078  19.1623 0011681 285.7734  74.2129 13.51013663128788
QIANFAN-45              
1 62246U 24232K   26199.82889299  .00000022  00000+0  16404-4 0  9997
2 62246  89.0081  19.3200 0012350 285.2840  74.6946 13.51011095128703
QIANFAN-46              
1 62247U 24232L   26199.85354498  .00000019  00000+0  10475-4 0  9997
2 62247  89.0077  19.3776 0012464 291.6063  68.3760 13.51011723128668
QIANFAN-47              
1 62248U 24232M   26199.85767625  .00000036  00000+0  37605-4 0  9991
2 62248  89.0073  19.3013 0012868 290.5395  69.4375 13.51011318128690
QIANFAN-48              
1 62249U 24232N   26199.82048407  .00000030  00000+0  27434-4 0  9992
2 62249  89.0077  19.3154 0015164 293.1765  66.7789 13.51015942128699
QIANFAN-49              
1 62250U 24232P   26199.80820455  .00000010  00000+0 -32400-5 0  9992
2 62250  89.0076  19.3274 0012177 287.5656  72.4164 13.51014193 97288
QIANFAN-50              
1 62251U 24232Q   26199.83300110  .00000024  00000+0  18732-4 0  9992
2 62251  89.0081  19.3450 0013848 288.7353  71.2295 13.51010994 97315
QIANFAN-51              
1 62252U 24232R   26199.81656954  .00000013  00000+0  12294-5 0  9997
2 62252  89.0075  19.3271 0011369 293.8602  66.1357 13.51022265 97305
QIANFAN-52              
1 62253U 24232S   26199.84524824  .00000023  00000+0  17057-4 0  9993
2 62253  89.0072  19.1893 0013302 284.1223  75.8450 13.51013961 97395
QIANFAN-53              
1 62254U 24232T   26199.82474747  .00000022  00000+0  16350-4 0  9994
2 62254  89.0079  19.3124 0012196 285.6325  74.3480 13.51009926 97350
QIANFAN-54              
1 62255U 24232U   26199.86583760  .00000021  00000+0  14624-4 0  9996
2 62255  89.0070  18.9674 0001941  27.3073 332.8180 13.51013772128868
PROBA-3 CSC             
1 62256U 24233A   26194.51730997 -.00000416  00000+0  00000+0 0  9998
2 62256  59.7151  95.2689 7999354 206.3090  66.9598  1.22075545  7142
PROBA-3 OSC             
1 62258U 24233C   26185.50774909 -.00000317  00000+0  00000+0 0  9990
2 62258  59.7187  96.0232 8000227 206.0626  67.6161  1.22075363  7020
