OBJECT_NAME,OBJECT_ID,EPOCH,MEAN_MOTION,ECCENTRICITY,INCLINATION,RA_OF_ASC_NODE,ARG_OF_PERICENTER,MEAN_ANOMALY,EPHEMERIS_TYPE,CLASSIFICATION_TYPE,NORAD_CAT_ID,ELEMENT_SET_NO,REV_AT_EPOCH,BSTAR,MEAN_MOTION_DOT,MEAN_MOTION_DDOT
STARLINK-11475 [DTC],2024-231J,2026-07-18T08:08:16.721952,15.69733125,.00011356,53.1577,177.0496,84.5839,275.5308,0,U,62226,999,9393,.72462176E-3,.88221E-3,0
STARLINK-11469 [DTC],2024-231K,2026-07-18T05:19:02.258688,15.69744257,.0001195,53.1570,177.7407,94.3057,265.8097,0,U,62227,999,9391,.858452E-3,.104884E-2,0
STARLINK-11476 [DTC],2024-231L,2026-07-18T15:25:30.472320,15.69722206,.0001129,53.1584,175.3829,93.4532,266.6615,0,U,62228,999,9399,.56192E-3,.68082E-3,0
STARLINK-11485 [DTC],2024-231M,2026-07-18T15:53:45.724128,15.69746163,.0000874,53.1579,175.5156,81.3088,278.8029,0,U,62229,999,9398,.12036E-2,.14808E-2,0
STARLINK-11481 [DTC],2024-231N,2026-07-18T15:18:35.538048,15.69727193,.0001106,53.1576,176.0836,92.4445,267.6700,0,U,62230,999,9397,.8997E-3,.109942E-2,0
STARLINK-32650,2024-231P,2026-07-18T15:41:47.410080,15.31706220,.0001258,53.1578,331.0327,102.7896,257.3246,0,U,62231,999,9182,.31458E-3,.9411E-4,0
STARLINK-32636,2024-231Q,2026-07-18T15:45:44.966880,15.30207709,.0001749,53.1601,331.0502,97.1447,262.9752,0,U,62232,999,9182,.49703E-3,.14393E-3,0
STARLINK-32643,2024-231R,2026-07-18T15:57:24.787008,15.31716283,.0001556,53.1600,317.6072,77.8046,282.3129,0,U,62233,999,9200,.61836E-3,.18882E-3,0
STARLINK-32652,2024-231S,2026-07-18T18:56:25.925280,15.31706946,.0001382,53.1609,330.4520,89.6509,270.4651,0,U,62234,999,9183,.25386E-3,.7522E-4,0
STARLINK-32631,2024-231T,2026-07-18T17:04:29.356032,15.31704494,.0001263,53.1585,317.1921,80.9911,279.1233,0,U,62235,999,9201,.32814E-3,.9832E-4,0
STARLINK-32641,2024-231U,2026-07-18T17:56:59.411040,15.30209757,.0000923,53.1595,318.1172,75.2767,284.8336,0,U,62236,999,9200,.39819E-3,.11456E-3,0
QIANFAN-37,2024-232B,2026-07-18T19:29:55.478688,13.51011387,.0002106,89.0070,19.4072,108.6838,251.4542,0,U,62238,999,12861,.11034E-4,.19E-6,0
QIANFAN-38,2024-232C,2026-07-18T20:05:27.168000,13.51022229,.0012542,89.0077,19.3353,287.6809,72.2972,0,U,62239,999,12867,.38145E-4,.36E-6,0
QIANFAN-39,2024-232D,2026-07-18T19:22:51.367872,14.25532828,.0018512,89.0066,12.4640,85.4699,274.8608,0,U,62240,999,13245,.2432E-4,.72E-6,0
QIANFAN-40,2024-232E,2026-07-18T20:52:49.619136,13.51009555,.0011685,89.0104,18.9773,297.0021,62.9937,0,U,62241,999,12904,.20355E-4,.25E-6,0
QIANFAN-41,2024-232F,2026-07-18T21:04:39.052128,13.51012456,.001191,89.0075,19.2786,282.9689,77.0131,0,U,62242,999,12870,.11149E-4,.19E-6,0
QIANFAN-42,2024-232G,2026-07-18T19:17:48.688800,14.24621312,.0017377,89.0064,12.5438,91.4696,268.8487,0,U,62243,999,13241,.23228E-4,.69E-6,0
QIANFAN-43,2024-232H,2026-07-18T20:58:43.191264,13.51011858,.0013501,89.0079,19.3540,288.8289,71.1398,0,U,62244,999,9731,.17192E-4,.23E-6,0
QIANFAN-44,2024-232J,2026-07-18T20:40:51.686112,13.51013663,.0011681,89.0078,19.1623,285.7734,74.2129,0,U,62245,999,12878,.16865E-4,.23E-6,0
QIANFAN-45,2024-232K,2026-07-18T19:53:36.354336,13.51011095,.001235,89.0081,19.3200,285.2840,74.6946,0,U,62246,999,12870,.16404E-4,.22E-6,0
QIANFAN-46,2024-232L,2026-07-18T20:29:06.286272,13.51011723,.0012464,89.0077,19.3776,291.6063,68.3760,0,U,62247,999,12866,.10475E-4,.19E-6,0
QIANFAN-47,2024-232M,2026-07-18T20:35:03.228000,13.51011318,.0012868,89.0073,19.3013,290.5395,69.4375,0,U,62248,999,12869,.37605E-4,.36E-6,0
QIANFAN-48,2024-232N,2026-07-18T19:41:29.823648,13.51015942,.0015164,89.0077,19.3154,293.1765,66.7789,0,U,62249,999,12869,.27434E-4,.3E-6,0
QIANFAN-49,2024-232P,2026-07-18T19:23:48.873120,13.51014193,.0012177,89.0076,19.3274,287.5656,72.4164,0,U,62250,999,9728,-.324E-5,.1E-6,0
QIANFAN-50,2024-232Q,2026-07-18T19:59:31.295040,13.51010994,.0013848,89.0081,19.3450,288.7353,71.2295,0,U,62251,999,9731,.18732E-4,.24E-6,0
QIANFAN-51,2024-232R,2026-07-18T19:35:51.608256,13.51022265,.0011369,89.0075,19.3271,293.8602,66.1357,0,U,62252,999,9730,.12294E-5,.13E-6,0
QIANFAN-52,2024-232S,2026-07-18T20:17:09.447936,13.51013961,.0013302,89.0072,19.1893,284.1223,75.8450,0,U,62253,999,9739,.17057E-4,.23E-6,0
QIANFAN-53,2024-232T,2026-07-18T19:47:38.181408,13.51009926,.0012196,89.0079,19.3124,285.6325,74.3480,0,U,62254,999,9735,.1635E-4,.22E-6,0
QIANFAN-54,2024-232U,2026-07-18T20:46:48.368640,13.51013772,.0001941,89.0070,18.9674,27.3073,332.8180,0,U,62255,999,12886,.14624E-4,.21E-6,0
PROBA-3 CSC,2024-233A,2026-07-13T12:24:55.581408,1.22075545,.79993549,59.7151,95.2689,206.3090,66.9598,0,U,62256,999,714,0,-.416E-5,0
PROBA-3 OSC,2024-233C,2026-07-04T12:11:09.521376,1.22075363,.8000227,59.7187,96.0232,206.0626,67.6161,0,U,62258,999,702,0,-.317E-5,0
